{"type": "FeatureCollection", "features": [ {"type": "Feature", "properties": {"norad_id": 35455, "name": "COSMOS 2251 DEB", "group": "cosmos-2251-debris", "lat": 25.87129600996963, "lon": -39.31104490215658, "alt_km": 667.0305672861914, "timestamp": "2025-12-03T04:52:30.034937+00:00", "meta": {"OBJECT_NAME": "COSMOS 2251 DEB", "OBJECT_ID": "1993-036AKZ", "EPOCH": "2025-12-02T08:52:17.921568", "MEAN_MOTION": 14.49202551, "ECCENTRICITY": 0.00987049, "INCLINATION": 74.0278, "RA_OF_ASC_NODE": 314.2686, "ARG_OF_PERICENTER": 60.4192, "MEAN_ANOMALY": 300.6759, "EPHEMERIS_TYPE": 0, "CLASSIFICATION_TYPE": "U", "NORAD_CAT_ID": 35455, "ELEMENT_SET_NO": 999, "REV_AT_EPOCH": 86393, "BSTAR": 0.0016096128, "MEAN_MOTION_DOT": 6.5e-05, "MEAN_MOTION_DDOT": 0}, "tle": {"line1": "1 35455U 93036AKZ 25336.36965187  .00006500  00000+0  16096-2 0  9991", "line2": "2 35455  74.0278 314.2686 0098704  60.4192 300.6759 14.49202551863934"}}, "geometry": {"type": "Point", "coordinates": [-39.31104490215658, 25.87129600996963]}}, {"type": "Feature", "properties": {"norad_id": 35456, "name": "COSMOS 2251 DEB", "group": "cosmos-2251-debris", "lat": 60.0595258210948, "lon": 166.0325443699718, "alt_km": 646.6934248349189, "timestamp": "2025-12-03T04:52:30.034948+00:00", "meta": {"OBJECT_NAME": "COSMOS 2251 DEB", "OBJECT_ID": "1993-036ALA", "EPOCH": "2025-12-01T03:33:20.272320", "MEAN_MOTION": 14.6906786, "ECCENTRICITY": 0.00649292, "INCLINATION": 73.9491, "RA_OF_ASC_NODE": 140.0403, "ARG_OF_PERICENTER": 352.5373, "MEAN_ANOMALY": 7.4823, "EPHEMERIS_TYPE": 0, "CLASSIFICATION_TYPE": "U", "NORAD_CAT_ID": 35456, "ELEMENT_SET_NO": 999, "REV_AT_EPOCH": 65705, "BSTAR": 0.0015385209, "MEAN_MOTION_DOT": 9.308e-05, "MEAN_MOTION_DDOT": 0}, "tle": {"line1": "1 35456U 93036ALA 25335.14815130  .00009308  00000+0  15385-2 0  9998", "line2": "2 35456  73.9491 140.0403 0064929 352.5373   7.4823 14.69067860657052"}}, "geometry": {"type": "Point", "coordinates": [166.0325443699718, 60.0595258210948]}}, {"type": "Feature", "properties": {"norad_id": 35459, "name": "COSMOS 2251 DEB", "group": "cosmos-2251-debris", "lat": 72.3791037803056, "lon": -40.646404287224826, "alt_km": 753.4788932062484, "timestamp": "2025-12-03T04:52:30.034959+00:00", "meta": {"OBJECT_NAME": "COSMOS 2251 DEB", "OBJECT_ID": "1993-036ALD", "EPOCH": "2025-12-01T22:21:32.007744", "MEAN_MOTION": 14.37436198, "ECCENTRICITY": 0.00166822, "INCLINATION": 73.8706, "RA_OF_ASC_NODE": 207.3714, "ARG_OF_PERICENTER": 158.6603, "MEAN_ANOMALY": 201.5249, "EPHEMERIS_TYPE": 0, "CLASSIFICATION_TYPE": "U", "NORAD_CAT_ID": 35459, "ELEMENT_SET_NO": 999, "REV_AT_EPOCH": 58206, "BSTAR": 0.00027997141, "MEAN_MOTION_DOT": 8.11e-06, "MEAN_MOTION_DDOT": 0}, "tle": {"line1": "1 35459U 93036ALD 25335.93162046  .00000811  00000+0  27997-3 0  9992", "line2": "2 35459  73.8706 207.3714 0016682 158.6603 201.5249 14.37436198582065"}}, "geometry": {"type": "Point", "coordinates": [-40.646404287224826, 72.3791037803056]}}, {"type": "Feature", "properties": {"norad_id": 35462, "name": "COSMOS 2251 DEB", "group": "cosmos-2251-debris", "lat": 73.11016314424403, "lon": -3.4758329301885054, "alt_km": 819.3057485903319, "timestamp": "2025-12-03T04:52:30.034969+00:00", "meta": {"OBJECT_NAME": "COSMOS 2251 DEB", "OBJECT_ID": "1993-036ALG", "EPOCH": "2025-12-01T03:45:45.448128", "MEAN_MOTION": 14.29124029, "ECCENTRICITY": 0.00870444, "INCLINATION": 74.036, "RA_OF_ASC_NODE": 289.718, "ARG_OF_PERICENTER": 327.319, "MEAN_ANOMALY": 32.2589, "EPHEMERIS_TYPE": 0, "CLASSIFICATION_TYPE": "U", "NORAD_CAT_ID": 35462, "ELEMENT_SET_NO": 999, "REV_AT_EPOCH": 66215, "BSTAR": 0.0017949723, "MEAN_MOTION_DOT": 4.718e-05, "MEAN_MOTION_DDOT": 0}, "tle": {"line1": "1 35462U 93036ALG 25335.15677602  .00004718  00000+0  17950-2 0  9996", "line2": "2 35462  74.0360 289.7180 0087044 327.3190  32.2589 14.29124029662158"}}, "geometry": {"type": "Point", "coordinates": [-3.4758329301885054, 73.11016314424403]}}, {"type": "Feature", "properties": {"norad_id": 35465, "name": "COSMOS 2251 DEB", "group": "cosmos-2251-debris", "lat": -14.203439363489103, "lon": -149.35168614383494, "alt_km": 710.2413422116342, "timestamp": "2025-12-03T04:52:30.034980+00:00", "meta": {"OBJECT_NAME": "COSMOS 2251 DEB", "OBJECT_ID": "1993-036ALK", "EPOCH": "2025-11-29T22:48:34.232544", "MEAN_MOTION": 14.44263019, "ECCENTRICITY": 0.00634289, "INCLINATION": 73.9997, "RA_OF_ASC_NODE": 220.8763, "ARG_OF_PERICENTER": 24.0529, "MEAN_ANOMALY": 336.3567, "EPHEMERIS_TYPE": 0, "CLASSIFICATION_TYPE": "U", "NORAD_CAT_ID": 35465, "ELEMENT_SET_NO": 999, "REV_AT_EPOCH": 87057, "BSTAR": 0.00049692277, "MEAN_MOTION_DOT": 1.723e-05, "MEAN_MOTION_DDOT": 0}, "tle": {"line1": "1 35465U 93036ALK 25333.95039621  .00001723  00000+0  49692-3 0  9990", "line2": "2 35465  73.9997 220.8763 0063428  24.0529 336.3567 14.44263019870576"}}, "geometry": {"type": "Point", "coordinates": [-149.35168614383494, -14.203439363489103]}}, {"type": "Feature", "properties": {"norad_id": 35469, "name": "COSMOS 2251 DEB", "group": "cosmos-2251-debris", "lat": -6.625303604344712, "lon": 39.88816903398288, "alt_km": 779.0256633364033, "timestamp": "2025-12-03T04:52:30.034991+00:00", "meta": {"OBJECT_NAME": "COSMOS 2251 DEB", "OBJECT_ID": "1993-036ALP", "EPOCH": "2025-12-02T20:37:36.377184", "MEAN_MOTION": 14.49803399, "ECCENTRICITY": 0.007743, "INCLINATION": 74.0178, "RA_OF_ASC_NODE": 42.4415, "ARG_OF_PERICENTER": 200.1397, "MEAN_ANOMALY": 159.6705, "EPHEMERIS_TYPE": 0, "CLASSIFICATION_TYPE": "U", "NORAD_CAT_ID": 35469, "ELEMENT_SET_NO": 999, "REV_AT_EPOCH": 87968, "BSTAR": 0.00017084, "MEAN_MOTION_DOT": 6.55e-06, "MEAN_MOTION_DDOT": 0}, "tle": {"line1": "1 35469U 93036ALP 25336.85944881  .00000655  00000+0  17084-3 0  9992", "line2": "2 35469  74.0178  42.4415 0077430 200.1397 159.6705 14.49803399879680"}}, "geometry": {"type": "Point", "coordinates": [39.88816903398288, -6.625303604344712]}}, {"type": "Feature", "properties": {"norad_id": 35475, "name": "COSMOS 2251 DEB", "group": "cosmos-2251-debris", "lat": -63.2032272891837, "lon": 38.67876558112981, "alt_km": 654.9949629998027, "timestamp": "2025-12-03T04:52:30.035001+00:00", "meta": {"OBJECT_NAME": "COSMOS 2251 DEB", "OBJECT_ID": "1993-036ALV", "EPOCH": "2025-12-02T06:30:21.330144", "MEAN_MOTION": 14.69388033, "ECCENTRICITY": 0.0021308, "INCLINATION": 74.022, "RA_OF_ASC_NODE": 185.9231, "ARG_OF_PERICENTER": 259.5642, "MEAN_ANOMALY": 100.3127, "EPHEMERIS_TYPE": 0, "CLASSIFICATION_TYPE": "U", "NORAD_CAT_ID": 35475, "ELEMENT_SET_NO": 999, "REV_AT_EPOCH": 65463, "BSTAR": 0.0018441, "MEAN_MOTION_DOT": 0.00010931, "MEAN_MOTION_DDOT": 0}, "tle": {"line1": "1 35475U 93036ALV 25336.27108021  .00010931  00000+0  18441-2 0  9998", "line2": "2 35475  74.0220 185.9231 0021308 259.5642 100.3127 14.69388033654630"}}, "geometry": {"type": "Point", "coordinates": [38.67876558112981, -63.2032272891837]}}, {"type": "Feature", "properties": {"norad_id": 35476, "name": "COSMOS 2251 DEB", "group": "cosmos-2251-debris", "lat": -65.11476974951127, "lon": -62.08905365708059, "alt_km": 663.1261825242918, "timestamp": "2025-12-03T04:52:30.035011+00:00", "meta": {"OBJECT_NAME": "COSMOS 2251 DEB", "OBJECT_ID": "1993-036ALW", "EPOCH": "2025-12-02T08:28:00.724224", "MEAN_MOTION": 14.75278986, "ECCENTRICITY": 0.00172258, "INCLINATION": 73.9781, "RA_OF_ASC_NODE": 81.3016, "ARG_OF_PERICENTER": 69.3737, "MEAN_ANOMALY": 346.9835, "EPHEMERIS_TYPE": 0, "CLASSIFICATION_TYPE": "U", "NORAD_CAT_ID": 35476, "ELEMENT_SET_NO": 999, "REV_AT_EPOCH": 87734, "BSTAR": 0.0023282234, "MEAN_MOTION_DOT": 0.00015808, "MEAN_MOTION_DDOT": 0}, "tle": {"line1": "1 35476U 93036ALW 25336.35278616  .00015808  00000+0  23282-2 0  9993", "line2": "2 35476  73.9781  81.3016 0017225  69.3737 346.9835 14.75278986877347"}}, "geometry": {"type": "Point", "coordinates": [-62.08905365708059, -65.11476974951127]}}, {"type": "Feature", "properties": {"norad_id": 35580, "name": "COSMOS 2251 DEB", "group": "cosmos-2251-debris", "lat": -68.62942630618738, "lon": 62.51234935340698, "alt_km": 829.834289462874, "timestamp": "2025-12-03T04:52:30.035022+00:00", "meta": {"OBJECT_NAME": "COSMOS 2251 DEB", "OBJECT_ID": "1993-036ALX", "EPOCH": "2025-11-11T02:25:47.460864", "MEAN_MOTION": 13.83664367, "ECCENTRICITY": 0.0284653, "INCLINATION": 73.9022, "RA_OF_ASC_NODE": 232.5156, "ARG_OF_PERICENTER": 243.9426, "MEAN_ANOMALY": 113.2144, "EPHEMERIS_TYPE": 0, "CLASSIFICATION_TYPE": "U", "NORAD_CAT_ID": 35580, "ELEMENT_SET_NO": 999, "REV_AT_EPOCH": 61819, "BSTAR": 0.0015271116, "MEAN_MOTION_DOT": 2.282e-05, "MEAN_MOTION_DDOT": 0}, "tle": {"line1": "1 35580U 93036ALX 25315.10124376  .00002282  00000+0  15271-2 0  9993", "line2": "2 35580  73.9022 232.5156 0284653 243.9426 113.2144 13.83664367618196"}}, "geometry": {"type": "Point", "coordinates": [62.51234935340698, -68.62942630618738]}}, {"type": "Feature", "properties": {"norad_id": 35583, "name": "COSMOS 2251 DEB", "group": "cosmos-2251-debris", "lat": -24.387238143177242, "lon": 54.98729332778159, "alt_km": 860.7444917050689, "timestamp": "2025-12-03T04:52:30.035032+00:00", "meta": {"OBJECT_NAME": "COSMOS 2251 DEB", "OBJECT_ID": "1993-036AMA", "EPOCH": "2025-12-01T09:18:45.701280", "MEAN_MOTION": 13.55311164, "ECCENTRICITY": 0.03859858, "INCLINATION": 73.9177, "RA_OF_ASC_NODE": 230.413, "ARG_OF_PERICENTER": 256.8414, "MEAN_ANOMALY": 98.9367, "EPHEMERIS_TYPE": 0, "CLASSIFICATION_TYPE": "U", "NORAD_CAT_ID": 35583, "ELEMENT_SET_NO": 999, "REV_AT_EPOCH": 82258, "BSTAR": 0.00049161142, "MEAN_MOTION_DOT": 5.24e-06, "MEAN_MOTION_DDOT": 0}, "tle": {"line1": "1 35583U 93036AMA 25335.38802895  .00000524  00000+0  49161-3 0  9990", "line2": "2 35583  73.9177 230.4130 0385985 256.8414  98.9367 13.55311164822588"}}, "geometry": {"type": "Point", "coordinates": [54.98729332778159, -24.387238143177242]}}]}